{
    "links": {
        "self": "http://www.neowsapp.com/rest/v1/neo/3712529?api_key=iIulBulltgU6a56xZRHN4H3l9WmuAYTsLGpBGhQ2"
    },
    "id": "3712529",
    "neo_reference_id": "3712529",
    "name": "(2015 DU198)",
    "designation": "2015 DU198",
    "nasa_jpl_url": "http://ssd.jpl.nasa.gov/sbdb.cgi?sstr=3712529",
    "absolute_magnitude_h": 25.6,
    "estimated_diameter": {
        "kilometers": {
            "estimated_diameter_min": 0.0201629919,
            "estimated_diameter_max": 0.0450858206
        },
        "meters": {
            "estimated_diameter_min": 20.1629919443,
            "estimated_diameter_max": 45.0858206172
        },
        "miles": {
            "estimated_diameter_min": 0.0125286985,
            "estimated_diameter_max": 0.0280150214
        },
        "feet": {
            "estimated_diameter_min": 66.1515504905,
            "estimated_diameter_max": 147.9193637137
        }
    },
    "is_potentially_hazardous_asteroid": false,
    "close_approach_data": [
        {
            "close_approach_date": "2015-03-04",
            "close_approach_date_full": "2015-Mar-04 12:31",
            "epoch_date_close_approach": 1425472260000,
            "relative_velocity": {
                "kilometers_per_second": "8.4319117986",
                "kilometers_per_hour": "30354.8824748144",
                "miles_per_hour": "18861.3435021979"
            },
            "miss_distance": {
                "astronomical": "0.0433374255",
                "lunar": "16.8582585195",
                "kilometers": "6483186.546083685",
                "miles": "4028465.317317453"
            },
            "orbiting_body": "Earth"
        }
    ],
    "orbital_data": {
        "orbit_id": "6",
        "orbit_determination_date": "2019-07-17 06:10:36",
        "first_observation_date": "2015-02-22",
        "last_observation_date": "2015-02-27",
        "data_arc_in_days": 5,
        "observations_used": 21,
        "orbit_uncertainty": "8",
        "minimum_orbit_intersection": ".0198276",
        "jupiter_tisserand_invariant": "3.687",
        "epoch_osculation": "2457078.5",
        "eccentricity": ".4980539318660602",
        "semi_major_axis": "1.988093792707969",
        "inclination": "4.082260947733176",
        "ascending_node_longitude": "161.1899591871624",
        "orbital_period": "1023.891012540035",
        "perihelion_distance": ".997915862331257",
        "perihelion_argument": "25.59450693752262",
        "aphelion_distance": "2.97827172308468",
        "perihelion_time": "2457104.189335971486",
        "mean_anomaly": "350.9676314798463",
        "mean_motion": ".3515999218578195",
        "equinox": "J2000",
        "orbit_class": {
            "orbit_class_type": "APO",
            "orbit_class_description": "Near-Earth asteroid orbits which cross the Earth’s orbit similar to that of 1862 Apollo",
            "orbit_class_range": "a (semi-major axis) > 1.0 AU; q (perihelion) < 1.017 AU"
        }
    },
    "is_sentry_object": false
}